FENGYUN 1C DEB          
1 31362U 99025BRS 17345.87204233  .00000033  00000-0  39129-4 0  9993
2 31362  98.7821  13.4075 0018672 189.8355 170.2456 14.15699258552259
